{"type": "FeatureCollection", "features": [ {"type": "Feature", "properties": {"norad_id": 32324, "name": "FENGYUN 1C DEB", "group": "fengyun-1c-debris", "lat": 70.2384055673609, "lon": 76.14985036339122, "alt_km": 854.8349783458189, "timestamp": "2025-12-27T10:28:59.080819+00:00", "meta": {"OBJECT_NAME": "FENGYUN 1C DEB", "OBJECT_ID": "1999-025CXR", "EPOCH": "2025-12-24T17:23:16.128672", "MEAN_MOTION": 14.09166254, "ECCENTRICITY": 0.00496208, "INCLINATION": 99.5324, "RA_OF_ASC_NODE": 101.1678, "ARG_OF_PERICENTER": 350.6597, "MEAN_ANOMALY": 9.3643, "EPHEMERIS_TYPE": 0, "CLASSIFICATION_TYPE": "U", "NORAD_CAT_ID": 32324, "ELEMENT_SET_NO": 999, "REV_AT_EPOCH": 64167, "BSTAR": 0.00050694088, "MEAN_MOTION_DOT": 8.41e-06, "MEAN_MOTION_DDOT": 0}, "tle": {"line1": "1 32324U 99025CXR 25358.72449223  .00000841  00000+0  50694-3 0  9994", "line2": "2 32324  99.5324 101.1678 0049620 350.6597   9.3643 14.09166254641675"}}, "geometry": {"type": "Point", "coordinates": [76.14985036339122, 70.2384055673609]}}, {"type": "Feature", "properties": {"norad_id": 32326, "name": "FENGYUN 1C DEB", "group": "fengyun-1c-debris", "lat": 7.8800709808867415, "lon": -72.07162980380855, "alt_km": 1002.9435293487131, "timestamp": "2025-12-27T10:28:59.080829+00:00", "meta": {"OBJECT_NAME": "FENGYUN 1C DEB", "OBJECT_ID": "1999-025CXT", "EPOCH": "2025-12-25T00:34:20.838720", "MEAN_MOTION": 13.69298824, "ECCENTRICITY": 0.0386861, "INCLINATION": 98.4894, "RA_OF_ASC_NODE": 286.9798, "ARG_OF_PERICENTER": 106.5572, "MEAN_ANOMALY": 257.8432, "EPHEMERIS_TYPE": 0, "CLASSIFICATION_TYPE": "U", "NORAD_CAT_ID": 32326, "ELEMENT_SET_NO": 999, "REV_AT_EPOCH": 63350, "BSTAR": 0.00054460155, "MEAN_MOTION_DOT": 7.67e-06, "MEAN_MOTION_DDOT": 0}, "tle": {"line1": "1 32326U 99025CXT 25359.02385230  .00000767  00000+0  54460-3 0  9999", "line2": "2 32326  98.4894 286.9798 0386861 106.5572 257.8432 13.69298824633507"}}, "geometry": {"type": "Point", "coordinates": [-72.07162980380855, 7.8800709808867415]}}, {"type": "Feature", "properties": {"norad_id": 32332, "name": "FENGYUN 1C DEB", "group": "fengyun-1c-debris", "lat": 42.431731639522624, "lon": -116.13414343220794, "alt_km": 1045.380712205415, "timestamp": "2025-12-27T10:28:59.080839+00:00", "meta": {"OBJECT_NAME": "FENGYUN 1C DEB", "OBJECT_ID": "1999-025CXZ", "EPOCH": "2025-12-26T23:29:30.950016", "MEAN_MOTION": 13.9721176, "ECCENTRICITY": 0.0285742, "INCLINATION": 99.1304, "RA_OF_ASC_NODE": 54.9566, "ARG_OF_PERICENTER": 273.5817, "MEAN_ANOMALY": 83.2711, "EPHEMERIS_TYPE": 0, "CLASSIFICATION_TYPE": "U", "NORAD_CAT_ID": 32332, "ELEMENT_SET_NO": 999, "REV_AT_EPOCH": 93235, "BSTAR": 0.0017234, "MEAN_MOTION_DOT": 3.364e-05, "MEAN_MOTION_DDOT": 0}, "tle": {"line1": "1 32332U 99025CXZ 25360.97883044  .00003364  00000+0  17234-2 0  9991", "line2": "2 32332  99.1304  54.9566 0285742 273.5817  83.2711 13.97211760932358"}}, "geometry": {"type": "Point", "coordinates": [-116.13414343220794, 42.431731639522624]}}, {"type": "Feature", "properties": {"norad_id": 32334, "name": "FENGYUN 1C DEB", "group": "fengyun-1c-debris", "lat": -27.670255715783984, "lon": -128.8514908466434, "alt_km": 852.2343369633045, "timestamp": "2025-12-27T10:28:59.080849+00:00", "meta": {"OBJECT_NAME": "FENGYUN 1C DEB", "OBJECT_ID": "1999-025CYB", "EPOCH": "2025-12-27T02:38:09.737952", "MEAN_MOTION": 14.01655559, "ECCENTRICITY": 0.0067355, "INCLINATION": 99.25, "RA_OF_ASC_NODE": 55.719, "ARG_OF_PERICENTER": 241.0316, "MEAN_ANOMALY": 118.4085, "EPHEMERIS_TYPE": 0, "CLASSIFICATION_TYPE": "U", "NORAD_CAT_ID": 32334, "ELEMENT_SET_NO": 999, "REV_AT_EPOCH": 94141, "BSTAR": 0.00035267, "MEAN_MOTION_DOT": 4.99e-06, "MEAN_MOTION_DDOT": 0}, "tle": {"line1": "1 32334U 99025CYB 25361.10983493  .00000499  00000+0  35267-3 0  9991", "line2": "2 32334  99.2500  55.7190 0067355 241.0316 118.4085 14.01655559941419"}}, "geometry": {"type": "Point", "coordinates": [-128.8514908466434, -27.670255715783984]}}, {"type": "Feature", "properties": {"norad_id": 32340, "name": "FENGYUN 1C DEB", "group": "fengyun-1c-debris", "lat": 24.87205185053629, "lon": 4.6223053631016935, "alt_km": 661.8880888218846, "timestamp": "2025-12-27T10:28:59.080859+00:00", "meta": {"OBJECT_NAME": "FENGYUN 1C DEB", "OBJECT_ID": "1999-025CYH", "EPOCH": "2025-12-23T07:03:11.292480", "MEAN_MOTION": 14.74893451, "ECCENTRICITY": 0.00335712, "INCLINATION": 98.9803, "RA_OF_ASC_NODE": 4.235, "ARG_OF_PERICENTER": 260.0415, "MEAN_ANOMALY": 99.7002, "EPHEMERIS_TYPE": 0, "CLASSIFICATION_TYPE": "U", "NORAD_CAT_ID": 32340, "ELEMENT_SET_NO": 999, "REV_AT_EPOCH": 97352, "BSTAR": 0.0022824537, "MEAN_MOTION_DOT": 0.00015424, "MEAN_MOTION_DDOT": 0}, "tle": {"line1": "1 32340U 99025CYH 25357.29388070  .00015424  00000+0  22825-2 0  9992", "line2": "2 32340  98.9803   4.2350 0033571 260.0415  99.7002 14.74893451973521"}}, "geometry": {"type": "Point", "coordinates": [4.6223053631016935, 24.87205185053629]}}, {"type": "Feature", "properties": {"norad_id": 32342, "name": "FENGYUN 1C DEB", "group": "fengyun-1c-debris", "lat": 72.70016951962998, "lon": -141.07783412089202, "alt_km": 845.3257930172058, "timestamp": "2025-12-27T10:28:59.080869+00:00", "meta": {"OBJECT_NAME": "FENGYUN 1C DEB", "OBJECT_ID": "1999-025CYK", "EPOCH": "2025-12-27T00:05:35.172384", "MEAN_MOTION": 14.13404745, "ECCENTRICITY": 0.0006843, "INCLINATION": 98.67, "RA_OF_ASC_NODE": 9.1693, "ARG_OF_PERICENTER": 308.0113, "MEAN_ANOMALY": 115.4063, "EPHEMERIS_TYPE": 0, "CLASSIFICATION_TYPE": "U", "NORAD_CAT_ID": 32342, "ELEMENT_SET_NO": 999, "REV_AT_EPOCH": 93919, "BSTAR": 0.00011768, "MEAN_MOTION_DOT": 1.78e-06, "MEAN_MOTION_DDOT": 0}, "tle": {"line1": "1 32342U 99025CYK 25361.00387931  .00000178  00000+0  11768-3 0  9998", "line2": "2 32342  98.6700   9.1693 0006843 308.0113 115.4063 14.13404745939195"}}, "geometry": {"type": "Point", "coordinates": [-141.07783412089202, 72.70016951962998]}}, {"type": "Feature", "properties": {"norad_id": 32343, "name": "FENGYUN 1C DEB", "group": "fengyun-1c-debris", "lat": -78.38652542008202, "lon": 120.32772360934382, "alt_km": 942.5677830314025, "timestamp": "2025-12-27T10:28:59.080879+00:00", "meta": {"OBJECT_NAME": "FENGYUN 1C DEB", "OBJECT_ID": "1999-025CYL", "EPOCH": "2025-12-13T05:18:56.833632", "MEAN_MOTION": 14.19848796, "ECCENTRICITY": 0.01521973, "INCLINATION": 98.6084, "RA_OF_ASC_NODE": 333.9812, "ARG_OF_PERICENTER": 126.2805, "MEAN_ANOMALY": 235.2541, "EPHEMERIS_TYPE": 0, "CLASSIFICATION_TYPE": "U", "NORAD_CAT_ID": 32343, "ELEMENT_SET_NO": 999, "REV_AT_EPOCH": 64720, "BSTAR": 0.00041342117, "MEAN_MOTION_DOT": 9.43e-06, "MEAN_MOTION_DDOT": 0}, "tle": {"line1": "1 32343U 99025CYL 25347.22149113  .00000943  00000+0  41342-3 0  9996", "line2": "2 32343  98.6084 333.9812 0152197 126.2805 235.2541 14.19848796647208"}}, "geometry": {"type": "Point", "coordinates": [120.32772360934382, -78.38652542008202]}}, {"type": "Feature", "properties": {"norad_id": 32350, "name": "FENGYUN 1C DEB", "group": "fengyun-1c-debris", "lat": 71.36739262155712, "lon": -108.66943641577785, "alt_km": 865.9594213836563, "timestamp": "2025-12-27T10:28:59.080889+00:00", "meta": {"OBJECT_NAME": "FENGYUN 1C DEB", "OBJECT_ID": "1999-025CYT", "EPOCH": "2025-12-23T20:00:36.959040", "MEAN_MOTION": 14.52655293, "ECCENTRICITY": 0.0266548, "INCLINATION": 98.2271, "RA_OF_ASC_NODE": 42.3822, "ARG_OF_PERICENTER": 264.2753, "MEAN_ANOMALY": 92.7999, "EPHEMERIS_TYPE": 0, "CLASSIFICATION_TYPE": "U", "NORAD_CAT_ID": 32350, "ELEMENT_SET_NO": 999, "REV_AT_EPOCH": 97688, "BSTAR": 0.00070823, "MEAN_MOTION_DOT": 4.579e-05, "MEAN_MOTION_DDOT": 0}, "tle": {"line1": "1 32350U 99025CYT 25357.83376110  .00004579  00000+0  70823-3 0  9996", "line2": "2 32350  98.2271  42.3822 0266548 264.2753  92.7999 14.52655293976880"}}, "geometry": {"type": "Point", "coordinates": [-108.66943641577785, 71.36739262155712]}}, {"type": "Feature", "properties": {"norad_id": 32352, "name": "FENGYUN 1C DEB", "group": "fengyun-1c-debris", "lat": -21.000001174594004, "lon": -74.74843155855841, "alt_km": 833.2435529354916, "timestamp": "2025-12-27T10:28:59.080899+00:00", "meta": {"OBJECT_NAME": "FENGYUN 1C DEB", "OBJECT_ID": "1999-025CYV", "EPOCH": "2025-12-25T00:16:27.065568", "MEAN_MOTION": 14.41437454, "ECCENTRICITY": 0.01226682, "INCLINATION": 98.7798, "RA_OF_ASC_NODE": 279.3585, "ARG_OF_PERICENTER": 134.5255, "MEAN_ANOMALY": 226.6034, "EPHEMERIS_TYPE": 0, "CLASSIFICATION_TYPE": "U", "NORAD_CAT_ID": 32352, "ELEMENT_SET_NO": 999, "REV_AT_EPOCH": 65446, "BSTAR": 0.00020280465, "MEAN_MOTION_DOT": 6.69e-06, "MEAN_MOTION_DDOT": 0}, "tle": {"line1": "1 32352U 99025CYV 25359.01142437  .00000669  00000+0  20280-3 0  9991", "line2": "2 32352  98.7798 279.3585 0122668 134.5255 226.6034 14.41437454654469"}}, "geometry": {"type": "Point", "coordinates": [-74.74843155855841, -21.000001174594004]}}, {"type": "Feature", "properties": {"norad_id": 32353, "name": "FENGYUN 1C DEB", "group": "fengyun-1c-debris", "lat": -32.98939692202216, "lon": -176.50199806292378, "alt_km": 974.6252809355437, "timestamp": "2025-12-27T10:28:59.080928+00:00", "meta": {"OBJECT_NAME": "FENGYUN 1C DEB", "OBJECT_ID": "1999-025CYW", "EPOCH": "2025-12-24T05:40:29.330112", "MEAN_MOTION": 14.03902083, "ECCENTRICITY": 0.01243796, "INCLINATION": 98.9207, "RA_OF_ASC_NODE": 174.5047, "ARG_OF_PERICENTER": 167.3058, "MEAN_ANOMALY": 193.129, "EPHEMERIS_TYPE": 0, "CLASSIFICATION_TYPE": "U", "NORAD_CAT_ID": 32353, "ELEMENT_SET_NO": 999, "REV_AT_EPOCH": 63355, "BSTAR": 0.0025490541, "MEAN_MOTION_DOT": 4.268e-05, "MEAN_MOTION_DDOT": 0}, "tle": {"line1": "1 32353U 99025CYW 25358.23645058  .00004268  00000+0  25491-2 0  9999", "line2": "2 32353  98.9207 174.5047 0124379 167.3058 193.1290 14.03902083633554"}}, "geometry": {"type": "Point", "coordinates": [-176.50199806292378, -32.98939692202216]}}]}